start=new Date('2022-01-22T00:00:00.000Z').valueOf();
sats=[{"OBJECT_NAME":"STARLINK-1349","EPOCH":"2022-01-21T12:24:46.696896","MEAN_MOTION_DOT":"-0.00000679","TLE_LINE1":"1 45587U 20025BJ  22021.51720714 -.00000679  00000-0 -26668-4 0  9998","RA_OF_ASC_NODE":"7.0663","ECCENTRICITY":"0.00014990","MEAN_MOTION_DDOT":"0.0000000000000","FILE":"3279324","LAUNCH_DATE":"2020-04-22","OBJECT_TYPE":"PAYLOAD","CENTER_NAME":"EARTH","TIME_SYSTEM":"UTC","DECAY_DATE":null,"INCLINATION":"53.0539","EPHEMERIS_TYPE":"0","CLASSIFICATION_TYPE":"U","GP_ID":"194326518","PERIOD":"95.593","ELEMENT_SET_NO":"999","PERIAPSIS":"546.204","RCS_SIZE":"LARGE","BSTAR":"-0.00002666800000","MEAN_MOTION":"15.06390529","TLE_LINE2":"2 45587  53.0539   7.0663 0001499  70.2548 289.8602 15.06390529 98199","APOAPSIS":"548.281","REF_FRAME":"TEME","SEMIMAJOR_AXIS":"6925.378","OBJECT_ID":"2020-025BJ","REV_AT_EPOCH":"9819","SITE":"AFETR","MEAN_ANOMALY":"289.8602","COUNTRY_CODE":"US","MEAN_ELEMENT_THEORY":"SGP4","ARG_OF_PERICENTER":"70.2548","NORAD_CAT_ID":"45587"},{"ECCENTRICITY":"0.00015150","MEAN_MOTION_DDOT":"0.0000000000000","RA_OF_ASC_NODE":"7.4735","TLE_LINE1":"1 45588U 20025BK  22021.42873098 -.00002174  00000-0 -12710-3 0  9997","DECAY_DATE":null,"INCLINATION":"53.0552","TIME_SYSTEM":"UTC","LAUNCH_DATE":"2020-04-22","FILE":"3279324","CENTER_NAME":"EARTH","OBJECT_TYPE":"PAYLOAD","MEAN_MOTION_DOT":"-0.00002174","OBJECT_NAME":"STARLINK-1360","EPOCH":"2022-01-21T10:17:22.356672","SEMIMAJOR_AXIS":"6925.376","OBJECT_ID":"2020-025BK","COUNTRY_CODE":"US","NORAD_CAT_ID":"45588","ARG_OF_PERICENTER":"61.5069","MEAN_ELEMENT_THEORY":"SGP4","SITE":"AFETR","MEAN_ANOMALY":"298.6072","REV_AT_EPOCH":"9817","EPHEMERIS_TYPE":"0","CLASSIFICATION_TYPE":"U","GP_ID":"194326264","TLE_LINE2":"2 45588  53.0552   7.4735 0001515  61.5069 298.6072 15.06391153 98170","APOAPSIS":"548.290","REF_FRAME":"TEME","BSTAR":"-0.00012710000000","MEAN_MOTION":"15.06391153","PERIAPSIS":"546.191","RCS_SIZE":"LARGE","PERIOD":"95.593","ELEMENT_SET_NO":"999"},{"EPHEMERIS_TYPE":"0","CLASSIFICATION_TYPE":"U","GP_ID":"194327018","BSTAR":"-0.00004612900000","MEAN_MOTION":"15.06397159","TLE_LINE2":"2 45589  53.0559   7.7819 0001716  78.1145 282.0036 15.06397159 98164","REF_FRAME":"TEME","APOAPSIS":"548.411","PERIOD":"95.592","ELEMENT_SET_NO":"999","RCS_SIZE":"LARGE","PERIAPSIS":"546.034","SEMIMAJOR_AXIS":"6925.357","OBJECT_ID":"2020-025BL","SITE":"AFETR","MEAN_ANOMALY":"282.0036","COUNTRY_CODE":"US","MEAN_ELEMENT_THEORY":"SGP4","ARG_OF_PERICENTER":"78.1145","NORAD_CAT_ID":"45589","REV_AT_EPOCH":"9816","MEAN_MOTION_DOT":"-0.00000969","OBJECT_NAME":"STARLINK-1364","EPOCH":"2022-01-21T08:36:30.988800","RA_OF_ASC_NODE":"7.7819","TLE_LINE1":"1 45589U 20025BL  22021.35869200 -.00000969  00000-0 -46129-4 0  9992","ECCENTRICITY":"0.00017160","MEAN_MOTION_DDOT":"0.0000000000000","INCLINATION":"53.0559","DECAY_DATE":null,"LAUNCH_DATE":"2020-04-22","FILE":"3279324","CENTER_NAME":"EARTH","OBJECT_TYPE":"PAYLOAD","TIME_SYSTEM":"UTC"},{"TLE_LINE1":"1 45590U 20025BM  22021.77245714  .00000622  00000-0  60680-4 0  9990","RA_OF_ASC_NODE":"35.9275","ECCENTRICITY":"0.00014240","MEAN_MOTION_DDOT":"0.0000000000000","DECAY_DATE":null,"INCLINATION":"53.0552","LAUNCH_DATE":"2020-04-22","FILE":"3279467","OBJECT_TYPE":"PAYLOAD","CENTER_NAME":"EARTH","TIME_SYSTEM":"UTC","MEAN_MOTION_DOT":"0.00000622","OBJECT_NAME":"STARLINK-1365","EPOCH":"2022-01-21T18:32:20.296896","SEMIMAJOR_AXIS":"6925.363","OBJECT_ID":"2020-025BM","SITE":"AFETR","MEAN_ANOMALY":"290.4947","COUNTRY_CODE":"US","NORAD_CAT_ID":"45590","MEAN_ELEMENT_THEORY":"SGP4","ARG_OF_PERICENTER":"69.6195","REV_AT_EPOCH":"9720","EPHEMERIS_TYPE":"0","CLASSIFICATION_TYPE":"U","GP_ID":"194335418","BSTAR":"0.00006068000000","MEAN_MOTION":"15.06395144","TLE_LINE2":"2 45590  53.0552  35.9275 0001424  69.6195 290.4947 15.06395144 97204","REF_FRAME":"TEME","APOAPSIS":"548.215","PERIOD":"95.592","ELEMENT_SET_NO":"999","PERIAPSIS":"546.242","RCS_SIZE":"LARGE"},{"EPOCH":"2022-01-21T14:44:04.327008","OBJECT_NAME":"STARLINK-1441","MEAN_MOTION_DOT":"-0.00002773","TLE_LINE1":"1 45658U 20035B   22021.61393897 -.00002773  00000-0 -16736-3 0  9998","RA_OF_ASC_NODE":"356.6338","ECCENTRICITY":"0.00017190","MEAN_MOTION_DDOT":"0.0000000000000","FILE":"3279427","LAUNCH_DATE":"2020-06-04","CENTER_NAME":"EARTH","OBJECT_TYPE":"PAYLOAD","TIME_SYSTEM":"UTC","INCLINATION":"53.0549","DECAY_DATE":null,"EPHEMERIS_TYPE":"0","CLASSIFICATION_TYPE":"U","GP_ID":"194334899","PERIOD":"95.593","ELEMENT_SET_NO":"999","RCS_SIZE":"LARGE","PERIAPSIS":"546.062","BSTAR":"-0.00016736000000","MEAN_MOTION":"15.06387141","TLE_LINE2":"2 45658  53.0549 356.6338 0001719  66.3481 293.7688 15.06387141 91027","REF_FRAME":"TEME","APOAPSIS":"548.443","SEMIMAJOR_AXIS":"6925.388","OBJECT_ID":"2020-035B","REV_AT_EPOCH":"9102","MEAN_ANOMALY":"293.7688","SITE":"AFETR","COUNTRY_CODE":"US","ARG_OF_PERICENTER":"66.3481","MEAN_ELEMENT_THEORY":"SGP4","NORAD_CAT_ID":"45658"},{"OBJECT_ID":"2020-035C","SEMIMAJOR_AXIS":"6925.368","MEAN_ANOMALY":"295.3284","SITE":"AFETR","COUNTRY_CODE":"US","MEAN_ELEMENT_THEORY":"SGP4","ARG_OF_PERICENTER":"64.7891","NORAD_CAT_ID":"45659","REV_AT_EPOCH":"9139","CLASSIFICATION_TYPE":"U","GP_ID":"194327774","EPHEMERIS_TYPE":"0","MEAN_MOTION":"15.06393595","BSTAR":"-0.00000661880000","REF_FRAME":"TEME","APOAPSIS":"548.480","TLE_LINE2":"2 45659  53.0605 357.4983 0001800  64.7891 295.3284 15.06393595 91394","ELEMENT_SET_NO":"999","PERIOD":"95.593","RCS_SIZE":"LARGE","PERIAPSIS":"545.987","RA_OF_ASC_NODE":"357.4983","TLE_LINE1":"1 45659U 20035C   22021.41765167 -.00000380  00000-0 -66188-5 0  9990","MEAN_MOTION_DDOT":"0.0000000000000","ECCENTRICITY":"0.00018000","INCLINATION":"53.0605","DECAY_DATE":null,"CENTER_NAME":"EARTH","OBJECT_TYPE":"PAYLOAD","LAUNCH_DATE":"2020-06-04","FILE":"3279324","TIME_SYSTEM":"UTC","MEAN_MOTION_DOT":"-0.00000380","EPOCH":"2022-01-21T10:01:25.104288","OBJECT_NAME":"STARLINK-1442"},{"MEAN_MOTION_DOT":"-0.00002864","EPOCH":"2022-01-21T10:13:23.445984","OBJECT_NAME":"STARLINK-1443","TLE_LINE1":"1 45660U 20035D   22021.42596581 -.00002864  00000-0 -17352-3 0  9991","RA_OF_ASC_NODE":"357.4868","MEAN_MOTION_DDOT":"0.0000000000000","ECCENTRICITY":"0.00014200","DECAY_DATE":null,"INCLINATION":"53.0547","OBJECT_TYPE":"PAYLOAD","CENTER_NAME":"EARTH","LAUNCH_DATE":"2020-06-04","FILE":"3279324","TIME_SYSTEM":"UTC","GP_ID":"194326025","CLASSIFICATION_TYPE":"U","EPHEMERIS_TYPE":"0","MEAN_MOTION":"15.06392076","BSTAR":"-0.00017352000000","REF_FRAME":"TEME","APOAPSIS":"548.221","TLE_LINE2":"2 45660  53.0547 357.4868 0001420  63.7269 296.3866 15.06392076 91401","ELEMENT_SET_NO":"999","PERIOD":"95.593","PERIAPSIS":"546.254","RCS_SIZE":"LARGE","SEMIMAJOR_AXIS":"6925.373","OBJECT_ID":"2020-035D","MEAN_ANOMALY":"296.3866","SITE":"AFETR","COUNTRY_CODE":"US","MEAN_ELEMENT_THEORY":"SGP4","NORAD_CAT_ID":"45660","ARG_OF_PERICENTER":"63.7269","REV_AT_EPOCH":"9140"},{"MEAN_MOTION":"15.06405655","BSTAR":"0.00002287600000","REF_FRAME":"TEME","APOAPSIS":"548.405","TLE_LINE2":"2 45661  53.0533 357.3930 0001746  69.0061 291.1115 15.06405655 91404","ELEMENT_SET_NO":"999","PERIOD":"95.592","PERIAPSIS":"545.987","RCS_SIZE":"LARGE","CLASSIFICATION_TYPE":"U","GP_ID":"194326770","EPHEMERIS_TYPE":"0","MEAN_ANOMALY":"291.1115","SITE":"AFETR","COUNTRY_CODE":"US","MEAN_ELEMENT_THEORY":"SGP4","NORAD_CAT_ID":"45661","ARG_OF_PERICENTER":"69.0061","REV_AT_EPOCH":"9140","SEMIMAJOR_AXIS":"6925.331","OBJECT_ID":"2020-035E","MEAN_MOTION_DOT":"0.00000059","OBJECT_NAME":"STARLINK-1444","EPOCH":"2022-01-21T10:39:55.324512","DECAY_DATE":null,"INCLINATION":"53.0533","CENTER_NAME":"EARTH","OBJECT_TYPE":"PAYLOAD","LAUNCH_DATE":"2020-06-04","FILE":"3279324","TIME_SYSTEM":"UTC","RA_OF_ASC_NODE":"357.3930","TLE_LINE1":"1 45661U 20035E   22021.44439033  .00000059  00000-0  22876-4 0  9992","MEAN_MOTION_DDOT":"0.0000000000000","ECCENTRICITY":"0.00017460"},{"MEAN_MOTION_DOT":"0.00002041","OBJECT_NAME":"STARLINK-1445","EPOCH":"2022-01-21T07:50:05.243712","RA_OF_ASC_NODE":"357.9239","TLE_LINE1":"1 45662U 20035F   22021.32644958  .00002041  00000-0  15589-3 0  9999","ECCENTRICITY":"0.00015610","MEAN_MOTION_DDOT":"0.0000000000000","INCLINATION":"53.0546","DECAY_DATE":null,"LAUNCH_DATE":"2020-06-04","FILE":"3279324","OBJECT_TYPE":"PAYLOAD","CENTER_NAME":"EARTH","TIME_SYSTEM":"UTC","EPHEMERIS_TYPE":"0","CLASSIFICATION_TYPE":"U","GP_ID":"194327524","BSTAR":"0.00015589000000","MEAN_MOTION":"15.06400243","TLE_LINE2":"2 45662  53.0546 357.9239 0001561  71.8002 288.3157 15.06400243 91387","APOAPSIS":"548.294","REF_FRAME":"TEME","PERIOD":"95.592","ELEMENT_SET_NO":"999","RCS_SIZE":"LARGE","PERIAPSIS":"546.132","SEMIMAJOR_AXIS":"6925.348","OBJECT_ID":"2020-035F","MEAN_ANOMALY":"288.3157","SITE":"AFETR","COUNTRY_CODE":"US","MEAN_ELEMENT_THEORY":"SGP4","NORAD_CAT_ID":"45662","ARG_OF_PERICENTER":"71.8002","REV_AT_EPOCH":"9138"},{"SEMIMAJOR_AXIS":"6925.380","OBJECT_ID":"2020-035G","COUNTRY_CODE":"US","MEAN_ELEMENT_THEORY":"SGP4","ARG_OF_PERICENTER":"65.8782","NORAD_CAT_ID":"45663","SITE":"AFETR","MEAN_ANOMALY":"294.2377","REV_AT_EPOCH":"9102","EPHEMERIS_TYPE":"0","CLASSIFICATION_TYPE":"U","GP_ID":"194334398","TLE_LINE2":"2 45663  53.0550 356.4174 0001625  65.8782 294.2377 15.06389742 91025","APOAPSIS":"548.370","REF_FRAME":"TEME","BSTAR":"-0.00006464700000","MEAN_MOTION":"15.06389742","PERIAPSIS":"546.120","RCS_SIZE":"LARGE","PERIOD":"95.593","ELEMENT_SET_NO":"999","ECCENTRICITY":"0.00016250","MEAN_MOTION_DDOT":"0.0000000000000","TLE_LINE1":"1 45663U 20035G   22021.66187731 -.00001244  00000-0 -64647-4 0  9994","RA_OF_ASC_NODE":"356.4174","DECAY_DATE":null,"INCLINATION":"53.0550","TIME_SYSTEM":"UTC","LAUNCH_DATE":"2020-06-04","FILE":"3279427","OBJECT_TYPE":"PAYLOAD","CENTER_NAME":"EARTH","MEAN_MOTION_DOT":"-0.00001244","EPOCH":"2022-01-21T15:53:06.199584","OBJECT_NAME":"STARLINK-1446"}];
